<?xml version="1.0"?>
<gpx xmlns="http://www.topografix.com/GPX/1/1" xmlns:xsi="http://www.w3.org/2001/XMLSchema-instance" version="1.1" creator="AllTrails.com" xsi:schemaLocation="http://www.topografix.com/GPX/1/1 http://www.topografix.com/GPX/1/1/gpx.xsd">
  <metadata>
    <name><![CDATA[DC Night Fountain Tour]]></name>
    <desc><![CDATA[]]></desc>
    <link href="http://www.alltrails.com">
      <text>AllTrails, LLC</text>
    </link>
    <bounds minlat="38.88335" minlon="-77.04502" maxlat="38.92056" maxlon="-77.03464"/>
  </metadata>
  <wpt lat="38.91907" lon="-77.035605">
    <name><![CDATA[Meridian Hill Park]]></name>
    <desc><![CDATA[Cascades fountain]]></desc>
  </wpt>
  <wpt lat="38.909573" lon="-77.043439">
    <name><![CDATA[DuPont Circle]]></name>
    <desc><![CDATA[Fountain]]></desc>
  </wpt>
  <wpt lat="38.889268" lon="-77.040146">
    <name><![CDATA[World War II Memorial]]></name>
    <desc><![CDATA[Huge fountains]]></desc>
  </wpt>
  <wpt lat="38.883401" lon="-77.042762">
    <name><![CDATA[FDR Memorial]]></name>
    <desc><![CDATA[Waterfalls]]></desc>
  </wpt>
  <trk>
    <name><![CDATA[DC Night Fountain Tour]]></name>
    <src>AllTrails</src>
    <trkseg>
      <trkpt lat="38.92048" lon="-77.03565">
        <ele>52.98</ele>
      </trkpt>
      <trkpt lat="38.92048" lon="-77.03565">
        <ele>52.98</ele>
      </trkpt>
      <trkpt lat="38.92048" lon="-77.03561">
        <ele>53.08</ele>
      </trkpt>
      <trkpt lat="38.92051" lon="-77.03558">
        <ele>53.37</ele>
      </trkpt>
      <trkpt lat="38.92055" lon="-77.03558">
        <ele>53.69</ele>
      </trkpt>
      <trkpt lat="38.92056" lon="-77.03514">
        <ele>53.58</ele>
      </trkpt>
      <trkpt lat="38.92055" lon="-77.0351">
        <ele>53.08</ele>
      </trkpt>
      <trkpt lat="38.92052" lon="-77.03502">
        <ele>53.0</ele>
      </trkpt>
      <trkpt lat="38.92051" lon="-77.03485">
        <ele>51.51</ele>
      </trkpt>
      <trkpt lat="38.92051" lon="-77.03485">
        <ele>51.51</ele>
      </trkpt>
      <trkpt lat="38.92052" lon="-77.03472">
        <ele>52.0</ele>
      </trkpt>
      <trkpt lat="38.91927" lon="-77.03464">
        <ele>37.12</ele>
      </trkpt>
      <trkpt lat="38.91927" lon="-77.03484">
        <ele>37.15</ele>
      </trkpt>
      <trkpt lat="38.91902" lon="-77.03481">
        <ele>36.0</ele>
      </trkpt>
      <trkpt lat="38.91818" lon="-77.0356">
        <ele>32.85</ele>
      </trkpt>
      <trkpt lat="38.91807" lon="-77.03569">
        <ele>32.0</ele>
      </trkpt>
      <trkpt lat="38.91734" lon="-77.03638">
        <ele>30.25</ele>
      </trkpt>
      <trkpt lat="38.91724" lon="-77.03637">
        <ele>30.0</ele>
      </trkpt>
      <trkpt lat="38.9172" lon="-77.0365">
        <ele>30.0</ele>
      </trkpt>
      <trkpt lat="38.91719" lon="-77.03663">
        <ele>30.0</ele>
      </trkpt>
      <trkpt lat="38.91712" lon="-77.03664">
        <ele>30.0</ele>
      </trkpt>
      <trkpt lat="38.9171" lon="-77.03666">
        <ele>30.0</ele>
      </trkpt>
      <trkpt lat="38.9169" lon="-77.0367">
        <ele>29.52</ele>
      </trkpt>
      <trkpt lat="38.91689" lon="-77.03674">
        <ele>29.41</ele>
      </trkpt>
      <trkpt lat="38.91689" lon="-77.03683">
        <ele>29.41</ele>
      </trkpt>
      <trkpt lat="38.91686" lon="-77.03683">
        <ele>29.09</ele>
      </trkpt>
      <trkpt lat="38.91657" lon="-77.0371">
        <ele>29.0</ele>
      </trkpt>
      <trkpt lat="38.91552" lon="-77.03807">
        <ele>28.0</ele>
      </trkpt>
      <trkpt lat="38.91446" lon="-77.03909">
        <ele>26.31</ele>
      </trkpt>
      <trkpt lat="38.91417" lon="-77.03935">
        <ele>26.04</ele>
      </trkpt>
      <trkpt lat="38.91416" lon="-77.03937">
        <ele>26.0</ele>
      </trkpt>
      <trkpt lat="38.91403" lon="-77.03951">
        <ele>26.0</ele>
      </trkpt>
      <trkpt lat="38.91402" lon="-77.0395">
        <ele>26.0</ele>
      </trkpt>
      <trkpt lat="38.914" lon="-77.03951">
        <ele>26.0</ele>
      </trkpt>
      <trkpt lat="38.91345" lon="-77.04003">
        <ele>26.0</ele>
      </trkpt>
      <trkpt lat="38.91342" lon="-77.04008">
        <ele>26.0</ele>
      </trkpt>
      <trkpt lat="38.9134" lon="-77.04008">
        <ele>26.0</ele>
      </trkpt>
      <trkpt lat="38.91336" lon="-77.04011">
        <ele>26.0</ele>
      </trkpt>
      <trkpt lat="38.9128" lon="-77.04064">
        <ele>25.31</ele>
      </trkpt>
      <trkpt lat="38.91257" lon="-77.04086">
        <ele>25.17</ele>
      </trkpt>
      <trkpt lat="38.91188" lon="-77.0415">
        <ele>26.0</ele>
      </trkpt>
      <trkpt lat="38.91184" lon="-77.04153">
        <ele>26.0</ele>
      </trkpt>
      <trkpt lat="38.91182" lon="-77.04153">
        <ele>26.0</ele>
      </trkpt>
      <trkpt lat="38.91162" lon="-77.04175">
        <ele>26.0</ele>
      </trkpt>
      <trkpt lat="38.91159" lon="-77.04176">
        <ele>26.0</ele>
      </trkpt>
      <trkpt lat="38.9112" lon="-77.04214">
        <ele>26.0</ele>
      </trkpt>
      <trkpt lat="38.91109" lon="-77.04226">
        <ele>26.0</ele>
      </trkpt>
      <trkpt lat="38.91105" lon="-77.04227">
        <ele>26.0</ele>
      </trkpt>
      <trkpt lat="38.91062" lon="-77.04267">
        <ele>26.25</ele>
      </trkpt>
      <trkpt lat="38.91029" lon="-77.04299">
        <ele>27.0</ele>
      </trkpt>
      <trkpt lat="38.91021" lon="-77.04292">
        <ele>26.66</ele>
      </trkpt>
      <trkpt lat="38.91006" lon="-77.04305">
        <ele>26.98</ele>
      </trkpt>
      <trkpt lat="38.90999" lon="-77.04312">
        <ele>27.0</ele>
      </trkpt>
      <trkpt lat="38.90996" lon="-77.04307">
        <ele>27.0</ele>
      </trkpt>
      <trkpt lat="38.90996" lon="-77.04307">
        <ele>27.0</ele>
      </trkpt>
      <trkpt lat="38.90989" lon="-77.04299">
        <ele>27.0</ele>
      </trkpt>
      <trkpt lat="38.90975" lon="-77.04292">
        <ele>26.86</ele>
      </trkpt>
      <trkpt lat="38.90961" lon="-77.0429">
        <ele>26.0</ele>
      </trkpt>
      <trkpt lat="38.90947" lon="-77.04295">
        <ele>26.0</ele>
      </trkpt>
      <trkpt lat="38.90939" lon="-77.04302">
        <ele>26.0</ele>
      </trkpt>
      <trkpt lat="38.90932" lon="-77.04312">
        <ele>26.46</ele>
      </trkpt>
      <trkpt lat="38.90927" lon="-77.04323">
        <ele>26.12</ele>
      </trkpt>
      <trkpt lat="38.90904" lon="-77.04309">
        <ele>26.0</ele>
      </trkpt>
      <trkpt lat="38.90899" lon="-77.0432">
        <ele>26.0</ele>
      </trkpt>
      <trkpt lat="38.90892" lon="-77.04327">
        <ele>26.0</ele>
      </trkpt>
      <trkpt lat="38.90884" lon="-77.04319">
        <ele>25.74</ele>
      </trkpt>
      <trkpt lat="38.90862" lon="-77.04307">
        <ele>25.16</ele>
      </trkpt>
      <trkpt lat="38.90732" lon="-77.04231">
        <ele>22.06</ele>
      </trkpt>
      <trkpt lat="38.9073" lon="-77.04231">
        <ele>22.0</ele>
      </trkpt>
      <trkpt lat="38.9072" lon="-77.04225">
        <ele>22.0</ele>
      </trkpt>
      <trkpt lat="38.90718" lon="-77.04224">
        <ele>22.0</ele>
      </trkpt>
      <trkpt lat="38.90717" lon="-77.04222">
        <ele>22.0</ele>
      </trkpt>
      <trkpt lat="38.90673" lon="-77.04196">
        <ele>21.0</ele>
      </trkpt>
      <trkpt lat="38.90651" lon="-77.04184">
        <ele>20.31</ele>
      </trkpt>
      <trkpt lat="38.90642" lon="-77.04181">
        <ele>20.0</ele>
      </trkpt>
      <trkpt lat="38.90634" lon="-77.04179">
        <ele>20.0</ele>
      </trkpt>
      <trkpt lat="38.90577" lon="-77.0418">
        <ele>18.14</ele>
      </trkpt>
      <trkpt lat="38.90574" lon="-77.0418">
        <ele>18.0</ele>
      </trkpt>
      <trkpt lat="38.90384" lon="-77.0418">
        <ele>16.5</ele>
      </trkpt>
      <trkpt lat="38.90366" lon="-77.04182">
        <ele>16.65</ele>
      </trkpt>
      <trkpt lat="38.90272" lon="-77.04181">
        <ele>20.0</ele>
      </trkpt>
      <trkpt lat="38.90271" lon="-77.04182">
        <ele>20.0</ele>
      </trkpt>
      <trkpt lat="38.90269" lon="-77.04182">
        <ele>20.0</ele>
      </trkpt>
      <trkpt lat="38.90235" lon="-77.04182">
        <ele>20.75</ele>
      </trkpt>
      <trkpt lat="38.90234" lon="-77.04181">
        <ele>20.85</ele>
      </trkpt>
      <trkpt lat="38.90145" lon="-77.04181">
        <ele>23.0</ele>
      </trkpt>
      <trkpt lat="38.90144" lon="-77.04182">
        <ele>23.0</ele>
      </trkpt>
      <trkpt lat="38.9014" lon="-77.0418">
        <ele>23.0</ele>
      </trkpt>
      <trkpt lat="38.90032" lon="-77.04181">
        <ele>19.0</ele>
      </trkpt>
      <trkpt lat="38.90029" lon="-77.04179">
        <ele>19.0</ele>
      </trkpt>
      <trkpt lat="38.90014" lon="-77.04179">
        <ele>19.0</ele>
      </trkpt>
      <trkpt lat="38.90013" lon="-77.04181">
        <ele>19.0</ele>
      </trkpt>
      <trkpt lat="38.90011" lon="-77.0418">
        <ele>19.0</ele>
      </trkpt>
      <trkpt lat="38.89978" lon="-77.0418">
        <ele>18.27</ele>
      </trkpt>
      <trkpt lat="38.8998" lon="-77.04185">
        <ele>18.82</ele>
      </trkpt>
      <trkpt lat="38.89978" lon="-77.04186">
        <ele>18.6</ele>
      </trkpt>
      <trkpt lat="38.89953" lon="-77.04185">
        <ele>18.0</ele>
      </trkpt>
      <trkpt lat="38.89949" lon="-77.04185">
        <ele>18.0</ele>
      </trkpt>
      <trkpt lat="38.89947" lon="-77.04183">
        <ele>18.0</ele>
      </trkpt>
      <trkpt lat="38.89945" lon="-77.04182">
        <ele>18.0</ele>
      </trkpt>
      <trkpt lat="38.89841" lon="-77.04181">
        <ele>18.0</ele>
      </trkpt>
      <trkpt lat="38.89838" lon="-77.04182">
        <ele>18.0</ele>
      </trkpt>
      <trkpt lat="38.89828" lon="-77.04182">
        <ele>18.0</ele>
      </trkpt>
      <trkpt lat="38.89825" lon="-77.04179">
        <ele>18.0</ele>
      </trkpt>
      <trkpt lat="38.89746" lon="-77.04179">
        <ele>17.0</ele>
      </trkpt>
      <trkpt lat="38.89742" lon="-77.04181">
        <ele>17.0</ele>
      </trkpt>
      <trkpt lat="38.89731" lon="-77.04182">
        <ele>16.97</ele>
      </trkpt>
      <trkpt lat="38.89725" lon="-77.0418">
        <ele>16.69</ele>
      </trkpt>
      <trkpt lat="38.89611" lon="-77.04181">
        <ele>12.99</ele>
      </trkpt>
      <trkpt lat="38.89607" lon="-77.04181">
        <ele>12.56</ele>
      </trkpt>
      <trkpt lat="38.8959" lon="-77.04187">
        <ele>11.77</ele>
      </trkpt>
      <trkpt lat="38.89588" lon="-77.04185">
        <ele>11.51</ele>
      </trkpt>
      <trkpt lat="38.89554" lon="-77.04185">
        <ele>10.02</ele>
      </trkpt>
      <trkpt lat="38.89552" lon="-77.04186">
        <ele>10.05</ele>
      </trkpt>
      <trkpt lat="38.89287" lon="-77.04186">
        <ele>5.0</ele>
      </trkpt>
      <trkpt lat="38.89284" lon="-77.04191">
        <ele>5.33</ele>
      </trkpt>
      <trkpt lat="38.89259" lon="-77.04187">
        <ele>5.0</ele>
      </trkpt>
      <trkpt lat="38.89229" lon="-77.04186">
        <ele>5.0</ele>
      </trkpt>
      <trkpt lat="38.892" lon="-77.04176">
        <ele>5.0</ele>
      </trkpt>
      <trkpt lat="38.892" lon="-77.04172">
        <ele>5.0</ele>
      </trkpt>
      <trkpt lat="38.89174" lon="-77.04172">
        <ele>4.79</ele>
      </trkpt>
      <trkpt lat="38.89173" lon="-77.04163">
        <ele>4.41</ele>
      </trkpt>
      <trkpt lat="38.89169" lon="-77.04151">
        <ele>4.0</ele>
      </trkpt>
      <trkpt lat="38.89157" lon="-77.04129">
        <ele>3.07</ele>
      </trkpt>
      <trkpt lat="38.8915" lon="-77.04121">
        <ele>3.19</ele>
      </trkpt>
      <trkpt lat="38.89143" lon="-77.04115">
        <ele>3.26</ele>
      </trkpt>
      <trkpt lat="38.89139" lon="-77.04103">
        <ele>3.88</ele>
      </trkpt>
      <trkpt lat="38.89137" lon="-77.04091">
        <ele>4.17</ele>
      </trkpt>
      <trkpt lat="38.89135" lon="-77.04056">
        <ele>5.97</ele>
      </trkpt>
      <trkpt lat="38.89086" lon="-77.04055">
        <ele>6.0</ele>
      </trkpt>
      <trkpt lat="38.89086" lon="-77.04059">
        <ele>6.0</ele>
      </trkpt>
      <trkpt lat="38.89086" lon="-77.04059">
        <ele>6.0</ele>
      </trkpt>
      <trkpt lat="38.89086" lon="-77.04055">
        <ele>6.0</ele>
      </trkpt>
      <trkpt lat="38.8899" lon="-77.04053">
        <ele>2.59</ele>
      </trkpt>
      <trkpt lat="38.88988" lon="-77.04065">
        <ele>1.7</ele>
      </trkpt>
      <trkpt lat="38.88985" lon="-77.04072">
        <ele>1.38</ele>
      </trkpt>
      <trkpt lat="38.88981" lon="-77.04078">
        <ele>1.4</ele>
      </trkpt>
      <trkpt lat="38.88976" lon="-77.04082">
        <ele>1.35</ele>
      </trkpt>
      <trkpt lat="38.8897" lon="-77.04086">
        <ele>1.22</ele>
      </trkpt>
      <trkpt lat="38.88961" lon="-77.04089">
        <ele>1.0</ele>
      </trkpt>
      <trkpt lat="38.8894" lon="-77.04088">
        <ele>1.0</ele>
      </trkpt>
      <trkpt lat="38.8894" lon="-77.04082">
        <ele>0.93</ele>
      </trkpt>
      <trkpt lat="38.88921" lon="-77.04081">
        <ele>0.88</ele>
      </trkpt>
      <trkpt lat="38.88912" lon="-77.04075">
        <ele>1.0</ele>
      </trkpt>
      <trkpt lat="38.88906" lon="-77.04069">
        <ele>1.07</ele>
      </trkpt>
      <trkpt lat="38.88903" lon="-77.04063">
        <ele>1.0</ele>
      </trkpt>
      <trkpt lat="38.88901" lon="-77.04056">
        <ele>1.0</ele>
      </trkpt>
      <trkpt lat="38.88901" lon="-77.0405">
        <ele>1.0</ele>
      </trkpt>
      <trkpt lat="38.88901" lon="-77.0405">
        <ele>1.0</ele>
      </trkpt>
      <trkpt lat="38.88901" lon="-77.04056">
        <ele>1.0</ele>
      </trkpt>
      <trkpt lat="38.88903" lon="-77.04063">
        <ele>1.0</ele>
      </trkpt>
      <trkpt lat="38.88906" lon="-77.04069">
        <ele>1.07</ele>
      </trkpt>
      <trkpt lat="38.88912" lon="-77.04075">
        <ele>1.0</ele>
      </trkpt>
      <trkpt lat="38.88921" lon="-77.04081">
        <ele>0.88</ele>
      </trkpt>
      <trkpt lat="38.8894" lon="-77.04082">
        <ele>0.93</ele>
      </trkpt>
      <trkpt lat="38.8894" lon="-77.04088">
        <ele>1.0</ele>
      </trkpt>
      <trkpt lat="38.8892" lon="-77.04088">
        <ele>1.0</ele>
      </trkpt>
      <trkpt lat="38.88912" lon="-77.04085">
        <ele>1.09</ele>
      </trkpt>
      <trkpt lat="38.88907" lon="-77.04083">
        <ele>1.04</ele>
      </trkpt>
      <trkpt lat="38.88901" lon="-77.04079">
        <ele>1.69</ele>
      </trkpt>
      <trkpt lat="38.88897" lon="-77.04074">
        <ele>2.12</ele>
      </trkpt>
      <trkpt lat="38.88894" lon="-77.04069">
        <ele>1.9</ele>
      </trkpt>
      <trkpt lat="38.88892" lon="-77.04061">
        <ele>1.66</ele>
      </trkpt>
      <trkpt lat="38.8889" lon="-77.04054">
        <ele>1.88</ele>
      </trkpt>
      <trkpt lat="38.8889" lon="-77.0405">
        <ele>1.88</ele>
      </trkpt>
      <trkpt lat="38.88842" lon="-77.04048">
        <ele>3.0</ele>
      </trkpt>
      <trkpt lat="38.88832" lon="-77.04077">
        <ele>3.0</ele>
      </trkpt>
      <trkpt lat="38.88813" lon="-77.04122">
        <ele>3.0</ele>
      </trkpt>
      <trkpt lat="38.88804" lon="-77.04125">
        <ele>3.0</ele>
      </trkpt>
      <trkpt lat="38.88785" lon="-77.04138">
        <ele>2.78</ele>
      </trkpt>
      <trkpt lat="38.8877" lon="-77.04143">
        <ele>2.07</ele>
      </trkpt>
      <trkpt lat="38.88728" lon="-77.04234">
        <ele>2.73</ele>
      </trkpt>
      <trkpt lat="38.88722" lon="-77.0425">
        <ele>3.0</ele>
      </trkpt>
      <trkpt lat="38.88715" lon="-77.04281">
        <ele>3.0</ele>
      </trkpt>
      <trkpt lat="38.88711" lon="-77.04309">
        <ele>3.0</ele>
      </trkpt>
      <trkpt lat="38.8871" lon="-77.04324">
        <ele>3.0</ele>
      </trkpt>
      <trkpt lat="38.8871" lon="-77.04357">
        <ele>3.0</ele>
      </trkpt>
      <trkpt lat="38.88714" lon="-77.0448">
        <ele>3.0</ele>
      </trkpt>
      <trkpt lat="38.88673" lon="-77.04481">
        <ele>3.04</ele>
      </trkpt>
      <trkpt lat="38.88672" lon="-77.04485">
        <ele>3.22</ele>
      </trkpt>
      <trkpt lat="38.88635" lon="-77.04485">
        <ele>3.0</ele>
      </trkpt>
      <trkpt lat="38.88635" lon="-77.04497">
        <ele>3.0</ele>
      </trkpt>
      <trkpt lat="38.88629" lon="-77.04495">
        <ele>3.0</ele>
      </trkpt>
      <trkpt lat="38.88616" lon="-77.04495">
        <ele>3.0</ele>
      </trkpt>
      <trkpt lat="38.88569" lon="-77.04502">
        <ele>2.78</ele>
      </trkpt>
      <trkpt lat="38.88497" lon="-77.04495">
        <ele>2.0</ele>
      </trkpt>
      <trkpt lat="38.88479" lon="-77.04497">
        <ele>2.32</ele>
      </trkpt>
      <trkpt lat="38.88473" lon="-77.04487">
        <ele>3.0</ele>
      </trkpt>
      <trkpt lat="38.88463" lon="-77.04472">
        <ele>2.98</ele>
      </trkpt>
      <trkpt lat="38.88432" lon="-77.04435">
        <ele>2.34</ele>
      </trkpt>
      <trkpt lat="38.8843" lon="-77.04434">
        <ele>2.56</ele>
      </trkpt>
      <trkpt lat="38.88425" lon="-77.04432">
        <ele>3.0</ele>
      </trkpt>
      <trkpt lat="38.88418" lon="-77.04432">
        <ele>3.0</ele>
      </trkpt>
      <trkpt lat="38.88418" lon="-77.04422">
        <ele>2.94</ele>
      </trkpt>
      <trkpt lat="38.88417" lon="-77.04417">
        <ele>2.97</ele>
      </trkpt>
      <trkpt lat="38.88394" lon="-77.04387">
        <ele>2.89</ele>
      </trkpt>
      <trkpt lat="38.88361" lon="-77.04366">
        <ele>3.0</ele>
      </trkpt>
      <trkpt lat="38.88357" lon="-77.04343">
        <ele>3.0</ele>
      </trkpt>
      <trkpt lat="38.88335" lon="-77.04307">
        <ele>3.0</ele>
      </trkpt>
    </trkseg>
  </trk>
</gpx>
